STARLINK-2705           
1 48672U 21044AL  24366.44261795  .00021067  00000+0  14293-2 0  9993
2 48672  53.0552 256.5412 0001612  91.4758 268.6416 15.06391855198541
STARLINK-2711           
1 48673U 21044AM  24366.43893220  .00019299  00000+0  13112-2 0  9990
2 48673  53.0532 256.5600 0001693  76.3756 283.7422 15.06392946198545
STARLINK-2712           
1 48674U 21044AN  24366.11457797  .00028099  00000+0  18986-2 0  9993
2 48674  53.0542 258.1303 0001296  81.3306 278.7830 15.06383522198492
STARLINK-2737           
1 48675U 21044AP  24366.83334491  .01197214  00000+0  23354-1 0  9999
2 48675  53.0489 252.4879 0001204 114.0402   3.7277 15.44169473199477
STARLINK-2746           
1 48676U 21044AQ  24366.42787141  .00024738  00000+0  16744-2 0  9994
2 48676  53.0523 256.6074 0001449  90.0732 270.0423 15.06386539198541
STARLINK-2615           
1 48678U 21044AS  24366.42050401  .00023674  00000+0  16037-2 0  9991
2 48678  53.0529 256.6414 0001272 117.2647 242.8472 15.06381395198544
STARLINK-2648           
1 48679U 21044AT  24366.41682053  .00021239  00000+0  14411-2 0  9994
2 48679  53.0541 256.6589 0001481  99.9351 260.1805 15.06382668198549
STARLINK-2649           
1 48680U 21044AU  24366.41312940  .00020537  00000+0  13941-2 0  9998
2 48680  53.0529 256.6738 0001085  95.3477 264.7635 15.06386249198542
STARLINK-2725           
1 48681U 21044AV  24366.61128033  .00013469  00000+0  92121-3 0  9993
2 48681  53.0522 226.0234 0001200  91.2806 268.8321 15.06407353198983
STARLINK-2743           
1 48682U 21044AW  24366.60849055  .00017660  00000+0  11993-2 0  9991
2 48682  53.0550 215.9518 0002122 108.8071 251.3148 15.06467008199124
STARLINK-2756           
1 48683U 21044AX  24366.29885024 -.00001675  00000+0 -93536-4 0  9999
2 48683  53.0529 217.1938 0001806  90.4574 269.6621 15.06399528199087
STARLINK-2741           
1 48684U 21044AY  24365.92339405  .00000132  00000+0  27752-4 0  9998
2 48684  53.0544 234.2285 0001758  94.5849 265.5341 15.06403426198813
STARLINK-2751           
1 48685U 21044AZ  24366.60110415  .00004444  00000+0  31699-3 0  9997
2 48685  53.0529 215.8770 0001384  88.0520 272.0627 15.06408396199979
STARLINK-2629           
1 48686U 21044BA  24366.32975777  .00000830  00000+0  74596-4 0  9996
2 48686  53.0517 222.3253 0001515  92.9522 267.1640 15.06391016199013
STARLINK-2627           
1 48687U 21044BB  24366.30484449  .00001039  00000+0  88624-4 0  9995
2 48687  53.0524 212.1591 0001694  87.1420 272.9762 15.06398712199159
STARLINK-2742           
1 48688U 21044BC  24366.30849757 -.00013574  00000+0 -89406-3 0  9990
2 48688  53.0513 212.1404 0003005  73.4798 286.6521 15.06395571199150
STARLINK-2617           
1 48689U 21044BD  24366.83334491  .00688819  21357-3  16389-2 0  9992
2 48689  53.0412 200.4439 0009647 287.3157  27.3594 15.96030746200208
STARLINK-2740           
1 48690U 21044BE  24366.32004691 -.00000355  00000+0 -49147-5 0  9998
2 48690  53.0530 227.0900 0001594  87.0599 273.0573 15.06398584198949
STARLINK-2750           
1 48691U 21044BF  24365.89478557 -.00001088  00000+0 -54130-4 0  9997
2 48691  53.0538 223.9998 0001738  89.1433 270.9755 15.06396001199794
STARLINK-2752           
1 48692U 21044BG  24366.60988301  .00015869  00000+0  10816-2 0  9992
2 48692  53.0535 220.9116 0001698  99.8130 260.3051 15.06407757199904
STARLINK-2618           
1 48693U 21044BH  24366.61766483  .00007991  00000+0  55464-3 0  9995
2 48693  53.0523 225.7541 0001442  83.0587 277.0566 15.06404938198997
STARLINK-2748           
1 48694U 21044BJ  24366.65222689  .00005785  00000+0  40694-3 0  9993
2 48694  53.0504 230.5872 0001535  88.3537 271.7628 15.06401197199764
STARLINK-2616           
1 48695U 21044BK  24366.34356254 -.00001907  00000+0 -10918-3 0  9996
2 48695  53.0588 232.0335 0001813  97.2098 262.9097 15.06391820198883
STARLINK-2753           
1 48696U 21044BL  24365.93579797 -.00000390  00000+0 -72687-5 0  9998
2 48696  53.0534 238.8614 0001777  94.0674 266.0519 15.06399554199598
STARLINK-3004           
1 48880U 21059B   24366.78176670  .00002520  00000+0  20074-3 0  9992
2 48880  97.6586 128.3184 0002476 255.5022 104.5928 15.01249590193848
STARLINK-3005           
1 48881U 21059C   24366.30853329  .00000373  00000+0  33673-4 0  9998
2 48881  97.6603 127.8053 0003312 247.3080 112.7794 15.01258552193784
STARLINK-3096           
1 49131U 21082B   24366.01987082  .00000379  00000+0  39578-4 0  9991
2 49131  69.9997 267.8781 0002795 270.4424  89.6415 14.98329301182008
STARLINK-3090           
1 49132U 21082C   24366.25833814  .00001825  00000+0  16071-3 0  9990
2 49132  70.0014 307.3085 0002161 273.4109  86.6802 14.98324086181055
STARLINK-3077           
1 49133U 21082D   24366.24981450  .00002422  00000+0  21066-3 0  9994
2 49133  70.0001 307.3083 0002876 268.3645  91.7185 14.98342786181059
STARLINK-3078           
1 49134U 21082E   24366.57944129  .00000976  00000+0  89544-4 0  9991
2 49134  70.0007 306.4771 0002814 272.8043  87.2794 14.98334950182303
STARLINK-3073           
1 49135U 21082F   24366.14921680  .00000567  00000+0  55270-4 0  9997
2 49135  69.9989 267.5433 0002722 271.2317  88.8530 14.98330031182038
STARLINK-3084           
1 49136U 21082G   24366.21203702  .00000076  00000+0  14162-4 0  9994
2 49136  70.0000 287.3968 0002709 270.2827  89.8021 14.98327611181551
STARLINK-3055           
1 49137U 21082H   24366.07434413  .00000720  00000+0  68108-4 0  9999
2 49137  69.9994 287.7464 0002639 270.6824  89.4032 14.98328400181521
STARLINK-3058           
1 49138U 21082J   24366.57527719  .00000119  00000+0  17759-4 0  9995
2 49138  70.0028 306.4967 0002647 271.8815  88.2041 14.98329260181108
STARLINK-3057           
1 49139U 21082K   24366.47467530 -.00000230  00000+0 -11469-4 0  9997
2 49139  69.9995 266.7309 0002775 268.2163  91.8678 14.98327505182078
STARLINK-3093           
1 49141U 21082M   24366.30406422 -.00000008  00000+0  71175-5 0  9998
2 49141  70.0006 307.1838 0002594 266.8718  93.2144 14.98327789182262
STARLINK-3042           
1 49142U 21082N   24366.46119417  .00005991  00000+0  50733-3 0  9991
2 49142  70.0008 266.7694 0002466 265.1014  94.9864 14.98494664182077
STARLINK-3109           
1 49143U 21082P   24366.53746744  .00002912  00000+0  25159-3 0  9993
2 49143  70.0012 286.5797 0004383 260.2950  99.7715 14.98347326181587
STARLINK-3100           
1 49144U 21082Q   24366.56275611 -.00000685  00000+0 -49671-4 0  9990
2 49144  70.0010 306.5110 0002004 273.1779  86.9151 14.98330930181101
STARLINK-3119           
1 49145U 21082R   24366.44547190  .00008074  00000+0  68350-3 0  9994
2 49145  69.9994 266.7986 0003697 266.4908  93.5828 14.98337359182069
STARLINK-3116           
1 49146U 21082S   24366.53332482 -.00000071  00000+0  18280-5 0  9990
2 49146  70.0030 286.5964 0002188 288.0538  72.0383 14.98327381182740
STARLINK-3071           
1 49147U 21082T   24366.45798247 -.00005225  00000+0 -43023-3 0  9995
2 49147  69.9997 266.7872 0002568 280.3487  79.7382 14.98347464182071
STARLINK-3048           
1 49148U 21082U   24366.79201686 -.00002136  00000+0 -17123-3 0  9999
2 49148  70.0001 285.9270 0002835 272.8684  87.2151 14.98340523182750
STARLINK-3053           
1 49149U 21082V   24366.74189076  .00072975  00000+0  37107-2 0  9992
2 49149  70.0002 305.1717 0005236 266.7435  93.3134 15.16441038182356
STARLINK-3104           
1 49150U 21082W   24366.55438949 -.00010830  00000+0 -90019-3 0  9995
2 49150  70.0016 306.5363 0002950 280.1561  79.9265 14.98374182182309
STARLINK-3102           
1 49151U 21082X   24366.43712048  .00001422  00000+0  12694-3 0  9996
2 49151  69.9990 266.8261 0002663 262.8000  97.2857 14.98322135183266
STARLINK-3081           
1 49152U 21082Y   24366.67911559  .00000387  00000+0  40247-4 0  9996
2 49152  69.9991 266.2123 0002492 269.2193  90.8680 14.98346226183230
STARLINK-3072           
1 49153U 21082Z   24366.42877906  .00000072  00000+0  13826-4 0  9991
2 49153  69.9994 266.8547 0002654 263.0060  97.0797 14.98326372183277
STARLINK-3068           
1 49154U 21082AA  24366.52080687  .00002110  00000+0  18461-3 0  9999
2 49154  70.0016 286.6098 0002579 266.1420  93.9444 14.98329385182660
STARLINK-3060           
1 49155U 21082AB  24366.02401027  .00004033  00000+0  34535-3 0  9996
2 49155  69.9984 267.8786 0002846 274.0880  85.9954 14.98358157183085
STARLINK-3085           
1 49156U 21082AC  24366.47050561 -.00000195  00000+0 -85953-5 0  9998
2 49156  70.0010 266.7445 0002215 274.3321  85.7585 14.98327071183159
STARLINK-3051           
1 49157U 21082AD  24366.78367142  .00000252  00000+0  28917-4 0  9997
2 49157  70.0004 285.9546 0002861 270.9842  89.0990 14.98327872182723
STARLINK-3083           
1 49158U 21082AE  24365.43730410  .00018360  00000+0  80145-3 0  9990
2 49158  69.9894 263.5869 0004680 254.1011 105.9645 15.22150929183160
STARLINK-3056           
1 49159U 21082AF  24366.28320279 -.00000696  00000+0 -50589-4 0  9998
2 49159  70.0011 307.2268 0002579 264.9954  95.0911 14.98327430182152
STARLINK-3095           
1 49160U 21082AG  24366.27068429  .00000657  00000+0  62900-4 0  9990
2 49160  69.9998 307.2387 0002960 271.9743  88.1077 14.98323002182129
STARLINK-3080           
1 49161U 21082AH  24366.54189071 -.00001495  00000+0 -11749-3 0  9995
2 49161  70.0009 306.5523 0002708 270.4951  89.5898 14.98340242182171
STARLINK-3088           
1 49163U 21082AK  24366.64180355 -.00002089  00000+0 -16727-3 0  9995
2 49163  69.9987 286.3136 0002878 280.0819  80.0015 14.98337270182778
STARLINK-3106           
1 49164U 21082AL  24366.76696958 -.00001585  00000+0 -12507-3 0  9992
2 49164  70.0006 286.0117 0002527 266.6993  93.3877 14.98323882182793
STARLINK-3052           
1 49165U 21082AM  24366.13299333 -.00000403  00000+0 -26026-4 0  9990
2 49165  69.9998 307.6167 0002673 268.0829  92.0024 14.98328641182239
